[{"OBJECT_NAME":"STARLINK-5009","OBJECT_ID":"2022-119AU","EPOCH":"2026-03-09T22:26:25.234656","MEAN_MOTION":15.08837825,"ECCENTRICITY":0.00015736,"INCLINATION":53.2182,"RA_OF_ASC_NODE":302.9145,"ARG_OF_PERICENTER":81.6237,"MEAN_ANOMALY":278.4934,"EPHEMERIS_TYPE":0,"CLASSIFICATION_TYPE":"U","NORAD_CAT_ID":53928,"ELEMENT_SET_NO":999,"REV_AT_EPOCH":19200,"BSTAR":2.808311e-6,"MEAN_MOTION_DOT":-2.43e-6,"MEAN_MOTION_DDOT":0},{"OBJECT_NAME":"OBJECT C","OBJECT_ID":"2025-292C","EPOCH":"2026-03-09T21:40:07.439232","MEAN_MOTION":15.0561637,"ECCENTRICITY":0.00142936,"INCLINATION":97.6364,"RA_OF_ASC_NODE":145.6037,"ARG_OF_PERICENTER":339.8589,"MEAN_ANOMALY":20.2072,"EPHEMERIS_TYPE":0,"CLASSIFICATION_TYPE":"U","NORAD_CAT_ID":66995,"ELEMENT_SET_NO":999,"REV_AT_EPOCH":1350,"BSTAR":0.00047642755,"MEAN_MOTION_DOT":6.828e-5,"MEAN_MOTION_DDOT":0}]
